NORAD_CAT_ID,OBJECT_NAME,OBJECT_TYPE,EPOCH,MEAN_MOTION,ECCENTRICITY,INCLINATION,RA_OF_ASC_NODE,ARG_OF_PERICENTER,MEAN_ANOMALY,BSTAR,MEAN_MOTION_DOT,MEAN_MOTION_DDOT,TLE_LINE0,TLE_LINE1,TLE_LINE2,SEMIMAJOR_AXIS,PERIOD,APOGEE,PERIGEE,DECAYED
52121.0,STARLINK-3678,PAYLOAD,2022-07-17 14:00:01,15.08825652,0.0001918,53.215,284.6922,39.9226,193.6497,0.00037434,5.672e-05,0.0,0 STARLINK-3678,1 52121U 22029AK  22198.58334491  .00005672  00000-0  37434-3 0  9999,2 52121  53.2150 284.6922 0001918  39.9226 193.6497 15.08825652  1307,6917.924,95.438,541.116,538.462,0.0
52121.0,STARLINK-3678,PAYLOAD,2022-07-17 22:00:00,15.08833629,0.000184,53.2147,283.1946,42.7444,202.3957,-0.0029792,-0.00047383,0.0,0 STARLINK-3678,1 52121U 22029AK  22198.91667824 -.00047383  00000-0 -29792-2 0  9999,2 52121  53.2147 283.1946 0001840  42.7444 202.3957 15.08833629 20023,6917.9,95.438,541.038,538.492,0.0
52121.0,STARLINK-3678,PAYLOAD,2022-07-18 14:00:01,15.08805088,0.0001981,53.2144,280.203,43.7259,224.5482,0.0015527,0.00024486,0.0,0 STARLINK-3678,1 52121U 22029AK  22199.58334491  .00024486  00000-0  15527-2 0  9992,2 52121  53.2144 280.2030 0001981  43.7259 224.5482 15.08805088  1300,6917.986999999999,95.44,541.2230000000002,538.482,0.0
52121.0,STARLINK-3678,PAYLOAD,2022-07-18 16:00:00,15.08797707,0.0001972,53.2143,279.829,42.646,318.5213,0.0030051,0.00047808,0.0,0 STARLINK-3678,1 52121U 22029AK  22199.66667824  .00047808  00000-0  30051-2 0  9992,2 52121  53.2143 279.8290 0001972  42.6460 318.5213 15.08797707 20139,6918.01,95.44,541.239,538.51,0.0
52121.0,STARLINK-3678,PAYLOAD,2022-07-18 22:00:00,15.08836273,0.0001865,53.2141,278.7053,44.8224,235.0138,-0.0015156,-0.00024326,0.0,0 STARLINK-3678,1 52121U 22029AK  22199.91667824 -.00024326  00000-0 -15156-2 0  9991,2 52121  53.2141 278.7053 0001865  44.8224 235.0138 15.08836273  1304,6917.892,95.438,541.047,538.467,0.0
52121.0,STARLINK-3678,PAYLOAD,2022-07-19 06:00:00,15.08838797,0.0001818,53.2141,277.2084,49.7739,241.6454,0.00064929,0.0001006,0.0,0 STARLINK-3678,1 52121U 22029AK  22200.25001157  .00010060  00000-0  64929-3 0  9993,2 52121  53.2141 277.2084 0001818  49.7739 241.6454 15.08838797 20224,6917.884,95.438,541.007,538.491,0.0
52121.0,STARLINK-3678,PAYLOAD,2022-07-19 14:00:01,15.08828241,0.0002018,53.214,275.7136,44.0333,258.9893,0.0021482,0.00034056,0.0,0 STARLINK-3678,1 52121U 22029AK  22200.58334491  .00034056  00000-0  21482-2 0  9996,2 52121  53.2140 275.7136 0002018  44.0333 258.9893 15.08828241  1304,6917.916,95.438,541.177,538.385,0.0
52121.0,STARLINK-3678,PAYLOAD,2022-07-19 22:00:00,15.08853598,0.0001952,53.2153,274.2121,44.4167,270.1984,-0.00012209,-2.232e-05,0.0,0 STARLINK-3678,1 52121U 22029AK  22200.91667824 -.00002232  00000-0 -12209-3 0  9993,2 52121  53.2153 274.2121 0001952  44.4167 270.1984 15.08853598  1301,6917.839,95.437,541.054,538.3530000000002,0.0
52121.0,STARLINK-3678,PAYLOAD,2022-07-20 14:00:01,15.08847181,0.0001973,53.214,271.2238,40.5422,297.353,-0.00012539,-2.284e-05,0.0,0 STARLINK-3678,1 52121U 22029AK  22201.58334491 -.00002284  00000-0 -12539-3 0  9991,2 52121  53.2140 271.2238 0001973  40.5422 297.3530 15.08847181 20420,6917.858,95.437,541.0880000000002,538.359,0.0
52121.0,STARLINK-3678,PAYLOAD,2022-07-20 22:00:01,15.08843717,0.0001851,53.214,269.7257,41.1814,308.3788,-0.0040046,-0.00063468,0.0,0 STARLINK-3678,1 52121U 22029AK  22201.91668981 -.00063468  00000-0 -40046-2 0  9996,2 52121  53.2140 269.7257 0001851  41.1814 308.3788 15.08843717  1305,6917.869000000002,95.437,541.015,538.4540000000002,0.0
52121.0,STARLINK-3678,PAYLOAD,2022-07-21 14:00:01,15.08804676,0.0001994,53.2143,266.7342,42.7298,330.0288,0.0026346,0.00041851,0.0,0 STARLINK-3678,1 52121U 22029AK  22202.58335648  .00041851  00000-0  26346-2 0  9998,2 52121  53.2143 266.7342 0001994  42.7298 330.0288 15.08804676  1309,6917.988,95.44,541.2330000000002,538.474,0.0
52121.0,STARLINK-3678,PAYLOAD,2022-07-21 22:00:00,15.08832645,0.0001865999999999,53.2145,265.2362,44.8849,339.3832,-0.00023144,-3.969e-05,0.0,0 STARLINK-3678,1 52121U 22029AK  22202.91667824 -.00003969  00000-0 -23144-3 0  9993,2 52121  53.2145 265.2362 0001866  44.8849 339.3832 15.08832645  1304,6917.903,95.438,541.059,538.477,0.0
52121.0,STARLINK-3678,PAYLOAD,2022-07-22 06:00:00,15.08852145,0.0001885,53.2147,263.7398,47.4958,348.3525,-0.00051395,-8.461e-05,0.0,0 STARLINK-3678,1 52121U 22029AK  22203.25001157 -.00008461  00000-0 -51395-3 0  9993,2 52121  53.2147 263.7398 0001885  47.4958 348.3525 15.08852145 20676,6917.843000000003,95.437,541.012,538.404,0.0
52121.0,STARLINK-3678,PAYLOAD,2022-07-22 22:00:00,15.08838497,0.0001849,53.2149,260.7468,43.6875,15.3756,-0.0011446,-0.00018458,0.0,0 STARLINK-3678,1 52121U 22029AK  22203.91667824 -.00018458  00000-0 -11446-2 0  9994,2 52121  53.2149 260.7468 0001849  43.6875  15.3756 15.08838497  1309,6917.885,95.438,541.029,538.471,0.0
52121.0,STARLINK-3678,PAYLOAD,2022-07-23 08:00:01,15.08844602,0.0001899999999999,53.215,258.8769,43.1045,120.4344,-0.0014787,-0.00023748,0.0,0 STARLINK-3678,1 52121U 22029AK  22204.33334491 -.00023748  00000-0 -14787-2 0  9991,2 52121  53.2150 258.8769 0001900  43.1045 120.4344 15.08844602 20830,6917.866,95.437,541.0459999999998,538.4169999999998,0.0
52121.0,STARLINK-3678,PAYLOAD,2022-07-23 14:00:01,15.08821739,0.0001993,53.2149,257.7556,39.0228,43.2768,0.0010525,0.00016494,0.0,0 STARLINK-3678,1 52121U 22029AK  22204.58335648  .00016494  00000-0  10525-2 0  9997,2 52121  53.2149 257.7556 0001993  39.0228  43.2768 15.08821739  1308,6917.936,95.439,541.18,538.422,0.0
52121.0,STARLINK-3678,PAYLOAD,2022-07-23 22:00:00,15.08813486,0.0001751999999999,53.215,256.2576,40.9324,52.8981,0.0002996999999999,4.482e-05,0.0,0 STARLINK-3678,1 52121U 22029AK  22204.91667824  .00004482  00000-0  29970-3 0  9997,2 52121  53.2150 256.2576 0001752  40.9324  52.8981 15.08813486  1300,6917.9609999999975,95.439,541.038,538.614,0.0
52121.0,STARLINK-3678,PAYLOAD,2022-07-24 06:00:00,15.08833913,0.0001789,53.215,254.7616,42.4906,62.8942,-0.0013957,-0.00022429,0.0,0 STARLINK-3678,1 52121U 22029AK  22205.25001157 -.00022429  00000-0 -13957-2 0  9996,2 52121  53.2150 254.7616 0001789  42.4906  62.8942 15.08833913 20970,6917.899,95.438,541.002,538.526,0.0
52121.0,STARLINK-3678,PAYLOAD,2022-07-24 14:00:01,15.0879719,0.0001947,53.2147,253.2666,37.3456,79.6207,0.0029574,0.00047039,0.0,0 STARLINK-3678,1 52121U 22029AK  22205.58334491  .00047039  00000-0  29574-2 0  9996,2 52121  53.2147 253.2666 0001947  37.3456  79.6207 15.08797190  1306,6918.011,95.44,541.2230000000002,538.529,0.0
52121.0,STARLINK-3678,PAYLOAD,2022-07-24 22:00:00,15.08812367,0.0001744,53.2146,251.7686,41.4457,87.0912,0.0011592,0.00018195,0.0,0 STARLINK-3678,1 52121U 22029AK  22205.91667824  .00018195  00000-0  11592-2 0  9994,2 52121  53.2146 251.7686 0001744  41.4457  87.0912 15.08812367  1302,6917.965,95.439,541.036,538.623,0.0
52121.0,STARLINK-3678,PAYLOAD,2022-07-25 06:00:00,15.08842173,0.0001795,53.2146,250.2728,43.0147,97.0846,-0.0017755,-0.00028436,0.0,0 STARLINK-3678,1 52121U 22029AK  22206.25001157 -.00028436  00000-0 -17755-2 0  9991,2 52121  53.2146 250.2728 0001795  43.0147  97.0846 15.08842173 21120,6917.874,95.437,540.981,538.497,0.0
52121.0,STARLINK-3678,PAYLOAD,2022-07-25 14:00:01,15.08805165,0.0001956999999999,53.2141,248.7776,38.098,113.5914,0.0026938,0.00042804,0.0,0 STARLINK-3678,1 52121U 22029AK  22206.58334491  .00042804  00000-0  26938-2 0  9993,2 52121  53.2141 248.7776 0001957  38.0980 113.5914 15.08805165  1307,6917.986999999999,95.44,541.206,538.498,0.0
52121.0,STARLINK-3678,PAYLOAD,2022-07-25 22:00:00,15.08814002,0.0001756,53.2139,247.2796,42.5625,120.7063,0.0014642,0.00023075,0.0,0 STARLINK-3678,1 52121U 22029AK  22206.91667824  .00023075  00000-0  14642-2 0  9997,2 52121  53.2139 247.2796 0001756  42.5625 120.7063 15.08814002 21221,6917.96,95.439,541.04,538.61,0.0
52121.0,STARLINK-3678,PAYLOAD,2022-07-26 14:00:01,15.08812321,0.0001986,53.2133,244.2886,39.2314,147.1993,0.0023436,0.0003718,0.0,0 STARLINK-3678,1 52121U 22029AK  22207.58334491  .00037180  00000-0  23436-2 0  9995,2 52121  53.2133 244.2886 0001986  39.2314 147.1993 15.08812321  1309,6917.965,95.439,541.2040000000002,538.456,0.0
52121.0,STARLINK-3678,PAYLOAD,2022-07-26 22:00:00,15.08814475,0.0001806,53.2131,242.7904,43.6451,154.3713,0.0017992,0.00028442,0.0,0 STARLINK-3678,1 52121U 22029AK  22207.91667824  .00028442  00000-0  17992-2 0  9992,2 52121  53.2131 242.7904 0001806  43.6451 154.3713 15.08814475 21374,6917.958000000001,95.439,541.073,538.5740000000002,0.0
52121.0,STARLINK-3678,PAYLOAD,2022-07-27 14:00:01,15.08820819,0.0002048,53.2127,239.7993,39.8997,181.2874,0.0018616,0.00029448,0.0,0 STARLINK-3678,1 52121U 22029AK  22208.58334491  .00029448  00000-0  18616-2 0  9998,2 52121  53.2127 239.7993 0002048  39.8997 181.2874 15.08820819  1301,6917.939,95.439,541.221,538.387,0.0
52121.0,STARLINK-3678,PAYLOAD,2022-07-27 16:00:00,15.08847021,0.0002013,53.2126,239.4247,40.0947,273.9813,-0.0014482,-0.00023267,0.0,0 STARLINK-3678,1 52121U 22029AK  22208.66667824 -.00023267  00000-0 -14482-2 0  9998,2 52121  53.2126 239.4247 0002013  40.0947 273.9813 15.08847021 21498,6917.859,95.437,541.116,538.331,0.0
52121.0,STARLINK-3678,PAYLOAD,2022-07-27 22:00:00,15.08817111,0.0001889,53.2127,238.301,44.1606,188.6215,0.0021978,0.00034842,0.0,0 STARLINK-3678,1 52121U 22029AK  22208.91667824  .00034842  00000-0  21978-2 0  9993,2 52121  53.2127 238.3010 0001889  44.1606 188.6215 15.08817111  1305,6917.95,95.439,541.122,538.509,0.0
52121.0,STARLINK-3678,PAYLOAD,2022-07-28 08:00:01,15.088454,0.0002091,53.2126,236.4318,43.0873,294.1771,-0.0012010999999999,-0.00019356,0.0,0 STARLINK-3678,1 52121U 22029AK  22209.33334491 -.00019356  00000-0 -12011-2 0  9994,2 52121  53.2126 236.4318 0002091  43.0873 294.1771 15.08845400 21599,6917.864000000001,95.437,541.175,538.2819999999998,0.0
